[{"OBJECT_NAME":"STARLINK-32327","OBJECT_ID":"2024-191W","EPOCH":"2026-03-09T06:23:01.225824","MEAN_MOTION":15.27589969,"ECCENTRICITY":0.0001265,"INCLINATION":42.9998,"RA_OF_ASC_NODE":156.7153,"ARG_OF_PERICENTER":212.4591,"MEAN_ANOMALY":147.6183,"EPHEMERIS_TYPE":0,"CLASSIFICATION_TYPE":"U","NORAD_CAT_ID":61641,"ELEMENT_SET_NO":999,"REV_AT_EPOCH":7747,"BSTAR":-0.0001948088,"MEAN_MOTION_DOT":-5.62e-5,"MEAN_MOTION_DDOT":0},{"OBJECT_NAME":"FLOCK 4G-18","OBJECT_ID":"2025-009BZ","EPOCH":"2026-03-09T04:35:14.656704","MEAN_MOTION":15.27241676,"ECCENTRICITY":0.00041001,"INCLINATION":97.4054,"RA_OF_ASC_NODE":150.5008,"ARG_OF_PERICENTER":335.7331,"MEAN_ANOMALY":24.3715,"EPHEMERIS_TYPE":0,"CLASSIFICATION_TYPE":"U","NORAD_CAT_ID":62680,"ELEMENT_SET_NO":999,"REV_AT_EPOCH":12126,"BSTAR":0.0004431856,"MEAN_MOTION_DOT":0.00011766,"MEAN_MOTION_DDOT":0}]
